CCSDS_OMM_VERS = 2.0
CREATION_DATE  = 
ORIGINATOR     = 

OBJECT_NAME    = STARLINK-35911
OBJECT_ID      = 2026-041M
CENTER_NAME    = EARTH
REF_FRAME      = TEME
TIME_SYSTEM    = UTC
MEAN_ELEMENT_THEORY = SGP/SGP4

EPOCH          = 2026-03-30T21:52:02.797536
MEAN_MOTION    = 15.75365961
ECCENTRICITY   = .00009196
INCLINATION    = 53.1590
RA_OF_ASC_NODE = 315.8829
ARG_OF_PERICENTER = 109.4931
MEAN_ANOMALY   = 250.6189

EPHEMERIS_TYPE = 0
CLASSIFICATION_TYPE = U
NORAD_CAT_ID   = 68051
ELEMENT_SET_NO = 999
REV_AT_EPOCH   = 457
BSTAR          = .17638819E-2
MEAN_MOTION_DOT = .280452E-2
MEAN_MOTION_DDOT = 0

CCSDS_OMM_VERS = 2.0
CREATION_DATE  = 
ORIGINATOR     = 

OBJECT_NAME    = STARLINK-35808
OBJECT_ID      = 2026-041N
CENTER_NAME    = EARTH
REF_FRAME      = TEME
TIME_SYSTEM    = UTC
MEAN_ELEMENT_THEORY = SGP/SGP4

EPOCH          = 2026-03-30T20:46:51.087648
MEAN_MOTION    = 15.75116880
ECCENTRICITY   = .00010443
INCLINATION    = 53.1567
RA_OF_ASC_NODE = 316.3180
ARG_OF_PERICENTER = 101.6926
MEAN_ANOMALY   = 258.4211

EPHEMERIS_TYPE = 0
CLASSIFICATION_TYPE = U
NORAD_CAT_ID   = 68052
ELEMENT_SET_NO = 999
REV_AT_EPOCH   = 456
BSTAR          = .63629003E-2
MEAN_MOTION_DOT = .1082745E-1
MEAN_MOTION_DDOT = 0

CCSDS_OMM_VERS = 2.0
CREATION_DATE  = 
ORIGINATOR     = 

OBJECT_NAME    = STARLINK-36919
OBJECT_ID      = 2026-041P
CENTER_NAME    = EARTH
REF_FRAME      = TEME
TIME_SYSTEM    = UTC
MEAN_ELEMENT_THEORY = SGP/SGP4

EPOCH          = 2026-03-30T22:00:00.999936
MEAN_MOTION    = 15.75266879
ECCENTRICITY   = .00008181
INCLINATION    = 53.1579
RA_OF_ASC_NODE = 315.8040
ARG_OF_PERICENTER = 83.0778
MEAN_ANOMALY   = 334.1726

EPHEMERIS_TYPE = 0
CLASSIFICATION_TYPE = U
NORAD_CAT_ID   = 68053
ELEMENT_SET_NO = 999
REV_AT_EPOCH   = 579
BSTAR          = -.44572117E-3
MEAN_MOTION_DOT = -.68492E-3
MEAN_MOTION_DDOT = 0

CCSDS_OMM_VERS = 2.0
CREATION_DATE  = 
ORIGINATOR     = 

OBJECT_NAME    = STARLINK-36924
OBJECT_ID      = 2026-041Q
CENTER_NAME    = EARTH
REF_FRAME      = TEME
TIME_SYSTEM    = UTC
MEAN_ELEMENT_THEORY = SGP/SGP4

EPOCH          = 2026-03-30T16:00:01.999584
MEAN_MOTION    = 15.75262344
ECCENTRICITY   = .00011836
INCLINATION    = 53.1596
RA_OF_ASC_NODE = 317.5205
ARG_OF_PERICENTER = 94.3403
MEAN_ANOMALY   = 112.6298

EPHEMERIS_TYPE = 0
CLASSIFICATION_TYPE = U
NORAD_CAT_ID   = 68054
ELEMENT_SET_NO = 999
REV_AT_EPOCH   = 575
BSTAR          = -.10127213E-3
MEAN_MOTION_DOT = -.16149E-3
MEAN_MOTION_DDOT = 0

CCSDS_OMM_VERS = 2.0
CREATION_DATE  = 
ORIGINATOR     = 

OBJECT_NAME    = STARLINK-35998
OBJECT_ID      = 2026-041R
CENTER_NAME    = EARTH
REF_FRAME      = TEME
TIME_SYSTEM    = UTC
MEAN_ELEMENT_THEORY = SGP/SGP4

EPOCH          = 2026-03-30T22:11:11.073408
MEAN_MOTION    = 15.75310600
ECCENTRICITY   = .00008644
INCLINATION    = 53.1585
RA_OF_ASC_NODE = 315.9702
ARG_OF_PERICENTER = 48.8983
MEAN_ANOMALY   = 311.2112

EPHEMERIS_TYPE = 0
CLASSIFICATION_TYPE = U
NORAD_CAT_ID   = 68055
ELEMENT_SET_NO = 999
REV_AT_EPOCH   = 457
BSTAR          = .19398342E-2
MEAN_MOTION_DOT = .308797E-2
MEAN_MOTION_DDOT = 0

CCSDS_OMM_VERS = 2.0
CREATION_DATE  = 
ORIGINATOR     = 

OBJECT_NAME    = STARLINK-36845
OBJECT_ID      = 2026-041S
CENTER_NAME    = EARTH
REF_FRAME      = TEME
TIME_SYSTEM    = UTC
MEAN_ELEMENT_THEORY = SGP/SGP4

EPOCH          = 2026-03-30T22:04:38.822592
MEAN_MOTION    = 15.75344480
ECCENTRICITY   = .00008221
INCLINATION    = 53.1599
RA_OF_ASC_NODE = 315.9407
ARG_OF_PERICENTER = 86.8167
MEAN_ANOMALY   = 273.2948

EPHEMERIS_TYPE = 0
CLASSIFICATION_TYPE = U
NORAD_CAT_ID   = 68056
ELEMENT_SET_NO = 999
REV_AT_EPOCH   = 457
BSTAR          = .1560892E-2
MEAN_MOTION_DOT = .246877E-2
MEAN_MOTION_DDOT = 0

CCSDS_OMM_VERS = 2.0
CREATION_DATE  = 
ORIGINATOR     = 

OBJECT_NAME    = STARLINK-36954
OBJECT_ID      = 2026-041T
CENTER_NAME    = EARTH
REF_FRAME      = TEME
TIME_SYSTEM    = UTC
MEAN_ELEMENT_THEORY = SGP/SGP4

EPOCH          = 2026-03-30T22:43:52.440672
MEAN_MOTION    = 15.75247366
ECCENTRICITY   = .00015537
INCLINATION    = 53.1592
RA_OF_ASC_NODE = 316.1223
ARG_OF_PERICENTER = 27.5927
MEAN_ANOMALY   = 332.5176

EPHEMERIS_TYPE = 0
CLASSIFICATION_TYPE = U
NORAD_CAT_ID   = 68057
ELEMENT_SET_NO = 999
REV_AT_EPOCH   = 457
BSTAR          = .24161508E-2
MEAN_MOTION_DOT = .38734E-2
MEAN_MOTION_DDOT = 0

CCSDS_OMM_VERS = 2.0
CREATION_DATE  = 
ORIGINATOR     = 

OBJECT_NAME    = STARLINK-36899
OBJECT_ID      = 2026-041U
CENTER_NAME    = EARTH
REF_FRAME      = TEME
TIME_SYSTEM    = UTC
MEAN_ELEMENT_THEORY = SGP/SGP4

EPOCH          = 2026-03-30T22:00:00.999936
MEAN_MOTION    = 15.75240701
ECCENTRICITY   = .00012118
INCLINATION    = 53.1587
RA_OF_ASC_NODE = 316.2258
ARG_OF_PERICENTER = 82.1101
MEAN_ANOMALY   = 129.1220

EPHEMERIS_TYPE = 0
CLASSIFICATION_TYPE = U
NORAD_CAT_ID   = 68058
ELEMENT_SET_NO = 999
REV_AT_EPOCH   = 579
BSTAR          = -.12710381E-3
MEAN_MOTION_DOT = -.20078E-3
MEAN_MOTION_DDOT = 0

CCSDS_OMM_VERS = 2.0
CREATION_DATE  = 
ORIGINATOR     = 

OBJECT_NAME    = STARLINK-36917
OBJECT_ID      = 2026-041V
CENTER_NAME    = EARTH
REF_FRAME      = TEME
TIME_SYSTEM    = UTC
MEAN_ELEMENT_THEORY = SGP/SGP4

EPOCH          = 2026-03-30T20:52:53.727456
MEAN_MOTION    = 15.75323762
ECCENTRICITY   = .0000719
INCLINATION    = 53.1570
RA_OF_ASC_NODE = 316.3472
ARG_OF_PERICENTER = 56.4707
MEAN_ANOMALY   = 303.6382

EPHEMERIS_TYPE = 0
CLASSIFICATION_TYPE = U
NORAD_CAT_ID   = 68059
ELEMENT_SET_NO = 999
REV_AT_EPOCH   = 456
BSTAR          = .13505245E-2
MEAN_MOTION_DOT = .212448E-2
MEAN_MOTION_DDOT = 0

CCSDS_OMM_VERS = 2.0
CREATION_DATE  = 
ORIGINATOR     = 

OBJECT_NAME    = STARLINK-36959
OBJECT_ID      = 2026-041W
CENTER_NAME    = EARTH
REF_FRAME      = TEME
TIME_SYSTEM    = UTC
MEAN_ELEMENT_THEORY = SGP/SGP4

EPOCH          = 2026-03-30T20:59:54.159360
MEAN_MOTION    = 15.75337348
ECCENTRICITY   = .00006367
INCLINATION    = 53.1576
RA_OF_ASC_NODE = 316.3771
ARG_OF_PERICENTER = 86.9996
MEAN_ANOMALY   = 273.1098

EPHEMERIS_TYPE = 0
CLASSIFICATION_TYPE = U
NORAD_CAT_ID   = 68060
ELEMENT_SET_NO = 999
REV_AT_EPOCH   = 456
BSTAR          = .1292436E-2
MEAN_MOTION_DOT = .203179E-2
MEAN_MOTION_DDOT = 0

CCSDS_OMM_VERS = 2.0
CREATION_DATE  = 
ORIGINATOR     = 

OBJECT_NAME    = STARLINK-36915
OBJECT_ID      = 2026-041X
CENTER_NAME    = EARTH
REF_FRAME      = TEME
TIME_SYSTEM    = UTC
MEAN_ELEMENT_THEORY = SGP/SGP4

EPOCH          = 2026-03-30T22:05:07.299168
MEAN_MOTION    = 15.75318659
ECCENTRICITY   = .00008458
INCLINATION    = 53.1598
RA_OF_ASC_NODE = 315.9404
ARG_OF_PERICENTER = 63.4099
MEAN_ANOMALY   = 296.7008

EPHEMERIS_TYPE = 0
CLASSIFICATION_TYPE = U
NORAD_CAT_ID   = 68061
ELEMENT_SET_NO = 999
REV_AT_EPOCH   = 457
BSTAR          = .12340802E-2
MEAN_MOTION_DOT = .193594E-2
MEAN_MOTION_DDOT = 0

CCSDS_OMM_VERS = 2.0
CREATION_DATE  = 
ORIGINATOR     = 

OBJECT_NAME    = STARLINK-36952
OBJECT_ID      = 2026-041Y
CENTER_NAME    = EARTH
REF_FRAME      = TEME
TIME_SYSTEM    = UTC
MEAN_ELEMENT_THEORY = SGP/SGP4

EPOCH          = 2026-03-30T22:37:18.826464
MEAN_MOTION    = 15.75321296
ECCENTRICITY   = .00037252
INCLINATION    = 53.1588
RA_OF_ASC_NODE = 316.0913
ARG_OF_PERICENTER = 173.3427
MEAN_ANOMALY   = 186.7643

EPHEMERIS_TYPE = 0
CLASSIFICATION_TYPE = U
NORAD_CAT_ID   = 68062
ELEMENT_SET_NO = 999
REV_AT_EPOCH   = 457
BSTAR          = .99723167E-3
MEAN_MOTION_DOT = .155664E-2
MEAN_MOTION_DDOT = 0

