STARLINK-35911          
1 68051U 26041M   26089.91114349  .00280452  00000+0  17639-2 0  9998
2 68051  53.1590 315.8829 0000919 109.4931 250.6189 15.75365961  4572
STARLINK-35808          
1 68052U 26041N   26089.86586907  .01082745  00000+0  63629-2 0  9992
2 68052  53.1567 316.3180 0001044 101.6926 258.4211 15.75116880  4566
STARLINK-36919          
1 68053U 26041P   26089.91667824 -.00068492  00000+0 -44572-3 0  9998
2 68053  53.1579 315.8040 0000818  83.0778 334.1726 15.75266879  5798
STARLINK-36924          
1 68054U 26041Q   26089.66668981 -.00016149  00000+0 -10127-3 0  9997
2 68054  53.1596 317.5205 0001183  94.3403 112.6298 15.75262344  5758
STARLINK-35998          
1 68055U 26041R   26089.92443372  .00308797  00000+0  19398-2 0  9991
2 68055  53.1585 315.9702 0000864  48.8983 311.2112 15.75310600  4573
STARLINK-36845          
1 68056U 26041S   26089.91989378  .00246877  00000+0  15609-2 0  9993
2 68056  53.1599 315.9407 0000822  86.8167 273.2948 15.75344480  4578
STARLINK-36954          
1 68057U 26041T   26089.94713473  .00387340  00000+0  24162-2 0  9993
2 68057  53.1592 316.1223 0001553  27.5927 332.5176 15.75247366  4576
STARLINK-36899          
1 68058U 26041U   26089.91667824 -.00020078  00000+0 -12710-3 0  9990
2 68058  53.1587 316.2258 0001211  82.1101 129.1220 15.75240701  5793
STARLINK-36917          
1 68059U 26041V   26089.87006629  .00212448  00000+0  13505-2 0  9990
2 68059  53.1570 316.3472 0000719  56.4707 303.6382 15.75323762  4564
STARLINK-36959          
1 68060U 26041W   26089.87493240  .00203179  00000+0  12924-2 0  9996
2 68060  53.1576 316.3771 0000636  86.9996 273.1098 15.75337348  4560
STARLINK-36915          
1 68061U 26041X   26089.92022337  .00193594  00000+0  12341-2 0  9990
2 68061  53.1598 315.9404 0000845  63.4099 296.7008 15.75318659  4576
STARLINK-36952          
1 68062U 26041Y   26089.94257901  .00155664  00000+0  99723-3 0  9996
2 68062  53.1588 316.0913 0003725 173.3427 186.7643 15.75321296  4573
